[
	{
		"addy_id": 1,
		"lat": "-78.18008",
		"lng": "-28.45185",
		"line1": "P.O. Box 225, 1722 Vel Rd.",
		"line2": "null",
		"city": "Stoke-on-Trent",
		"zipcode": "82036"
	},
	{
		"addy_id": 2,
		"lat": "72.56471",
		"lng": "51.25645",
		"line1": "Ap #113-4739 Eleifend, St.",
		"line2": "null",
		"city": "Cuttack",
		"zipcode": "28469"
	},
	{
		"addy_id": 3,
		"lat": "52.23461",
		"lng": "102.50243",
		"line1": "P.O. Box 996, 4816 Ut St.",
		"line2": "null",
		"city": "Wilhelmshaven",
		"zipcode": "19484"
	},
	{
		"addy_id": 4,
		"lat": "-7.90865",
		"lng": "58.16385",
		"line1": "P.O. Box 145, 4468 Ridiculus Rd.",
		"line2": "null",
		"city": "Georgia",
		"zipcode": "36367"
	},
	{
		"addy_id": 5,
		"lat": "20.2457",
		"lng": "-86.53978",
		"line1": "5143 Nunc Rd.",
		"line2": "null",
		"city": "Meetkerke",
		"zipcode": "71773"
	},
	{
		"addy_id": 6,
		"lat": "53.88236",
		"lng": "99.50088",
		"line1": "Ap #105-7943 Non, St.",
		"line2": "null",
		"city": "Nederhasselt",
		"zipcode": "17225"
	},
	{
		"addy_id": 7,
		"lat": "-54.71916",
		"lng": "-87.37633",
		"line1": "Ap #308-5124 Fermentum Avenue",
		"line2": "null",
		"city": "Evansville",
		"zipcode": "39186"
	},
	{
		"addy_id": 8,
		"lat": "69.17517",
		"lng": "122.09434",
		"line1": "Ap #980-4449 Nisi Rd.",
		"line2": "null",
		"city": "Columbus",
		"zipcode": "11921"
	},
	{
		"addy_id": 9,
		"lat": "-10.16478",
		"lng": "-11.8226",
		"line1": "P.O. Box 207, 8144 Nascetur St.",
		"line2": "null",
		"city": "West Valley City",
		"zipcode": "54450"
	},
	{
		"addy_id": 10,
		"lat": "21.86628",
		"lng": "172.0343",
		"line1": "P.O. Box 913, 6219 Luctus. Road",
		"line2": "null",
		"city": "Mérignac",
		"zipcode": "48405"
	},
	{
		"addy_id": 11,
		"lat": "-13.138",
		"lng": "91.48711",
		"line1": "695-4591 Quam St.",
		"line2": "null",
		"city": "Cumbernauld",
		"zipcode": "95349"
	},
	{
		"addy_id": 12,
		"lat": "-66.94029",
		"lng": "-156.72296",
		"line1": "570-5599 Vel, Rd.",
		"line2": "null",
		"city": "Morgex",
		"zipcode": "75317"
	},
	{
		"addy_id": 13,
		"lat": "-37.17896",
		"lng": "95.978",
		"line1": "Ap #828-8184 Consequat Rd.",
		"line2": "null",
		"city": "Minitonas",
		"zipcode": "66248"
	},
	{
		"addy_id": 14,
		"lat": "-52.53889",
		"lng": "-93.33441",
		"line1": "P.O. Box 904, 5978 Ut St.",
		"line2": "null",
		"city": "Bad Nauheim",
		"zipcode": "57451"
	},
	{
		"addy_id": 15,
		"lat": "-0.95176",
		"lng": "-44.39532",
		"line1": "690-7273 Egestas St.",
		"line2": "null",
		"city": "Habergy",
		"zipcode": "57916"
	},
	{
		"addy_id": 16,
		"lat": "-35.66677",
		"lng": "-45.10343",
		"line1": "P.O. Box 236, 6721 Quam Road",
		"line2": "null",
		"city": "Rauco",
		"zipcode": "78103"
	},
	{
		"addy_id": 17,
		"lat": "11.65729",
		"lng": "179.19301",
		"line1": "P.O. Box 762, 3563 Fermentum Avenue",
		"line2": "null",
		"city": "Milena",
		"zipcode": "13696"
	},
	{
		"addy_id": 18,
		"lat": "-30.27742",
		"lng": "-167.89431",
		"line1": "P.O. Box 321, 8534 Mauris Street",
		"line2": "null",
		"city": "Latur",
		"zipcode": "35950"
	},
	{
		"addy_id": 19,
		"lat": "14.21975",
		"lng": "36.23587",
		"line1": "6241 Vitae Street",
		"line2": "null",
		"city": "Dibrugarh",
		"zipcode": "96523"
	},
	{
		"addy_id": 20,
		"lat": "-86.94549",
		"lng": "-81.03255",
		"line1": "757-4032 Lobortis St.",
		"line2": "null",
		"city": "Quinta de Tilcoco",
		"zipcode": "17483"
	},
	{
		"addy_id": 21,
		"lat": "-30.16446",
		"lng": "-171.11238",
		"line1": "P.O. Box 870, 6740 Sapien. Ave",
		"line2": "null",
		"city": "Etroubles",
		"zipcode": "34190"
	},
	{
		"addy_id": 22,
		"lat": "23.25966",
		"lng": "-74.89061",
		"line1": "Ap #618-3623 Consectetuer, Rd.",
		"line2": "null",
		"city": "Overrepen",
		"zipcode": "30941"
	},
	{
		"addy_id": 23,
		"lat": "51.33892",
		"lng": "87.86243",
		"line1": "2367 Litora Rd.",
		"line2": "null",
		"city": "Portree",
		"zipcode": "59243"
	},
	{
		"addy_id": 24,
		"lat": "-16.31352",
		"lng": "-156.87498",
		"line1": "9623 Elit Rd.",
		"line2": "null",
		"city": "Machynlleth",
		"zipcode": "67924"
	},
	{
		"addy_id": 25,
		"lat": "-40.69816",
		"lng": "15.5313",
		"line1": "Ap #979-6263 Non St.",
		"line2": "null",
		"city": "Bangor",
		"zipcode": "88028"
	},
	{
		"addy_id": 26,
		"lat": "-4.22453",
		"lng": "17.43317",
		"line1": "Ap #623-4256 Lacinia Avenue",
		"line2": "null",
		"city": "Freux",
		"zipcode": "13151"
	},
	{
		"addy_id": 27,
		"lat": "-79.07533",
		"lng": "18.23109",
		"line1": "477-3127 Fermentum Street",
		"line2": "null",
		"city": "Wedel",
		"zipcode": "48389"
	},
	{
		"addy_id": 28,
		"lat": "76.43759",
		"lng": "-5.61688",
		"line1": "5808 Quam. St.",
		"line2": "null",
		"city": "Molenbeersel",
		"zipcode": "16752"
	},
	{
		"addy_id": 29,
		"lat": "-31.0958",
		"lng": "-79.65015",
		"line1": "1865 Et St.",
		"line2": "null",
		"city": "Falciano del Massico",
		"zipcode": "96184"
	},
	{
		"addy_id": 30,
		"lat": "-24.47792",
		"lng": "-158.27956",
		"line1": "Ap #673-4086 Eu Rd.",
		"line2": "null",
		"city": "Sparwood",
		"zipcode": "42479"
	},
	{
		"addy_id": 31,
		"lat": "-86.71887",
		"lng": "-136.01006",
		"line1": "P.O. Box 464, 2134 Arcu. Road",
		"line2": "null",
		"city": "Massenhoven",
		"zipcode": "84954"
	},
	{
		"addy_id": 32,
		"lat": "-28.2586",
		"lng": "-24.29736",
		"line1": "375 Sapien, Avenue",
		"line2": "null",
		"city": "Prè-Saint-Didier",
		"zipcode": "81688"
	},
	{
		"addy_id": 33,
		"lat": "-2.02248",
		"lng": "-72.88831",
		"line1": "P.O. Box 379, 4785 Nulla Av.",
		"line2": "null",
		"city": "Görlitz",
		"zipcode": "70715"
	},
	{
		"addy_id": 34,
		"lat": "6.61235",
		"lng": "-103.27136",
		"line1": "126-822 Facilisis Road",
		"line2": "null",
		"city": "Laval",
		"zipcode": "83266"
	},
	{
		"addy_id": 35,
		"lat": "-36.87388",
		"lng": "175.08932",
		"line1": "2669 Nec Av.",
		"line2": "null",
		"city": "Casciana Terme",
		"zipcode": "36632"
	},
	{
		"addy_id": 36,
		"lat": "-9.0113",
		"lng": "-169.58159",
		"line1": "P.O. Box 713, 8508 Nec Av.",
		"line2": "null",
		"city": "Noida",
		"zipcode": "31924"
	},
	{
		"addy_id": 37,
		"lat": "27.53866",
		"lng": "133.67046",
		"line1": "977-6422 Elementum, St.",
		"line2": "null",
		"city": "Itter",
		"zipcode": "41321"
	},
	{
		"addy_id": 38,
		"lat": "-68.57196",
		"lng": "-80.16983",
		"line1": "889-6330 Vehicula Rd.",
		"line2": "null",
		"city": "Meridian",
		"zipcode": "36597"
	},
	{
		"addy_id": 39,
		"lat": "-82.35106",
		"lng": "-147.69505",
		"line1": "7073 Vel Avenue",
		"line2": "null",
		"city": "Pellizzano",
		"zipcode": "11879"
	},
	{
		"addy_id": 40,
		"lat": "-7.35811",
		"lng": "176.93593",
		"line1": "Ap #371-8238 Turpis. Avenue",
		"line2": "null",
		"city": "Francavilla Fontana",
		"zipcode": "38022"
	},
	{
		"addy_id": 41,
		"lat": "-24.82426",
		"lng": "-52.17307",
		"line1": "443-1522 Morbi Av.",
		"line2": "null",
		"city": "Stockerau",
		"zipcode": "93629"
	},
	{
		"addy_id": 42,
		"lat": "45.357",
		"lng": "139.97363",
		"line1": "P.O. Box 290, 7464 Vitae Road",
		"line2": "null",
		"city": "Crawley",
		"zipcode": "10126"
	},
	{
		"addy_id": 43,
		"lat": "33.75082",
		"lng": "18.79185",
		"line1": "P.O. Box 684, 7572 Arcu Avenue",
		"line2": "null",
		"city": "Collinas",
		"zipcode": "11962"
	},
	{
		"addy_id": 44,
		"lat": "89.45571",
		"lng": "110.65144",
		"line1": "Ap #615-7341 Malesuada Avenue",
		"line2": "null",
		"city": "Chandigarh",
		"zipcode": "58177"
	},
	{
		"addy_id": 45,
		"lat": "68.87617",
		"lng": "84.24684",
		"line1": "761 Dis Av.",
		"line2": "null",
		"city": "New Glasgow",
		"zipcode": "50568"
	},
	{
		"addy_id": 46,
		"lat": "-7.19975",
		"lng": "169.50271",
		"line1": "7263 Tempus Road",
		"line2": "null",
		"city": "Santomenna",
		"zipcode": "52311"
	},
	{
		"addy_id": 47,
		"lat": "19.3902",
		"lng": "131.46699",
		"line1": "P.O. Box 850, 8717 Nibh. St.",
		"line2": "null",
		"city": "Pumanque",
		"zipcode": "54208"
	},
	{
		"addy_id": 48,
		"lat": "86.4454",
		"lng": "139.63476",
		"line1": "P.O. Box 793, 615 Mattis. St.",
		"line2": "null",
		"city": "Erciş",
		"zipcode": "66627"
	},
	{
		"addy_id": 49,
		"lat": "57.79706",
		"lng": "44.25615",
		"line1": "623-7700 Mi Street",
		"line2": "null",
		"city": "Berwick-upon-Tweed",
		"zipcode": "33843"
	},
	{
		"addy_id": 50,
		"lat": "-46.81899",
		"lng": "93.22136",
		"line1": "P.O. Box 215, 8879 Sed Street",
		"line2": "null",
		"city": "Launceston",
		"zipcode": "72713"
	},
	{
		"addy_id": 51,
		"lat": "80.30735",
		"lng": "-123.53575",
		"line1": "Ap #337-1853 Magna. Rd.",
		"line2": "null",
		"city": "Sala Baganza",
		"zipcode": "68710"
	},
	{
		"addy_id": 52,
		"lat": "67.80017",
		"lng": "-153.71131",
		"line1": "4401 In Av.",
		"line2": "null",
		"city": "Boorsem",
		"zipcode": "74657"
	},
	{
		"addy_id": 53,
		"lat": "21.99339",
		"lng": "-92.44201",
		"line1": "Ap #836-4073 Fermentum St.",
		"line2": "null",
		"city": "Agra",
		"zipcode": "88950"
	},
	{
		"addy_id": 54,
		"lat": "59.65204",
		"lng": "12.71563",
		"line1": "5400 Libero. Ave",
		"line2": "null",
		"city": "Elgin",
		"zipcode": "71826"
	},
	{
		"addy_id": 55,
		"lat": "84.23863",
		"lng": "120.68682",
		"line1": "6508 Quis Ave",
		"line2": "null",
		"city": "Tulita",
		"zipcode": "54459"
	},
	{
		"addy_id": 56,
		"lat": "-47.10803",
		"lng": "24.05105",
		"line1": "P.O. Box 225, 4533 Elit, Street",
		"line2": "null",
		"city": "Chhindwara",
		"zipcode": "93566"
	},
	{
		"addy_id": 57,
		"lat": "61.14144",
		"lng": "179.87411",
		"line1": "P.O. Box 134, 2325 Dolor Street",
		"line2": "null",
		"city": "Wakefield",
		"zipcode": "22140"
	},
	{
		"addy_id": 58,
		"lat": "37.66967",
		"lng": "119.44232",
		"line1": "P.O. Box 877, 2661 Nam Av.",
		"line2": "null",
		"city": "Cañete",
		"zipcode": "11057"
	},
	{
		"addy_id": 59,
		"lat": "19.95712",
		"lng": "-137.00709",
		"line1": "P.O. Box 309, 2235 Semper St.",
		"line2": "null",
		"city": "Ponte San Nicolò",
		"zipcode": "96651"
	},
	{
		"addy_id": 60,
		"lat": "48.28958",
		"lng": "-169.72256",
		"line1": "485-4426 In Av.",
		"line2": "null",
		"city": "Penticton",
		"zipcode": "56143"
	},
	{
		"addy_id": 61,
		"lat": "9.51227",
		"lng": "-87.879",
		"line1": "Ap #784-4048 Vitae, Rd.",
		"line2": "null",
		"city": "Auldearn",
		"zipcode": "77911"
	},
	{
		"addy_id": 62,
		"lat": "-49.63017",
		"lng": "-116.89032",
		"line1": "P.O. Box 579, 2525 Sodales. Street",
		"line2": "null",
		"city": "Morro d'Alba",
		"zipcode": "39849"
	},
	{
		"addy_id": 63,
		"lat": "-78.52139",
		"lng": "-126.3735",
		"line1": "P.O. Box 121, 8593 Quisque Street",
		"line2": "null",
		"city": "Merseburg",
		"zipcode": "20459"
	},
	{
		"addy_id": 64,
		"lat": "4.91743",
		"lng": "-97.03258",
		"line1": "P.O. Box 238, 8241 Adipiscing Avenue",
		"line2": "null",
		"city": "Davenport",
		"zipcode": "31144"
	},
	{
		"addy_id": 65,
		"lat": "-4.65611",
		"lng": "-87.93408",
		"line1": "613-6573 Tempor Rd.",
		"line2": "null",
		"city": "Herstal",
		"zipcode": "66776"
	},
	{
		"addy_id": 66,
		"lat": "-23.36426",
		"lng": "-84.96589",
		"line1": "P.O. Box 162, 6118 Sed Rd.",
		"line2": "null",
		"city": "Morgex",
		"zipcode": "51945"
	},
	{
		"addy_id": 67,
		"lat": "87.0447",
		"lng": "-17.63677",
		"line1": "664-825 Aliquam Road",
		"line2": "null",
		"city": "Cropalati",
		"zipcode": "52751"
	},
	{
		"addy_id": 68,
		"lat": "72.61125",
		"lng": "42.45038",
		"line1": "4771 Enim Ave",
		"line2": "null",
		"city": "Nurallao",
		"zipcode": "34716"
	},
	{
		"addy_id": 69,
		"lat": "-13.62582",
		"lng": "-42.31059",
		"line1": "Ap #731-730 Vivamus Avenue",
		"line2": "null",
		"city": "Stigliano",
		"zipcode": "75219"
	},
	{
		"addy_id": 70,
		"lat": "-80.30446",
		"lng": "62.61268",
		"line1": "P.O. Box 161, 5537 Consectetuer Avenue",
		"line2": "null",
		"city": "Meppel",
		"zipcode": "61373"
	},
	{
		"addy_id": 71,
		"lat": "-41.76192",
		"lng": "-39.62631",
		"line1": "Ap #351-6697 Vitae Rd.",
		"line2": "null",
		"city": "Modakeke",
		"zipcode": "59791"
	},
	{
		"addy_id": 72,
		"lat": "-41.54045",
		"lng": "157.84547",
		"line1": "128-8667 Metus. Rd.",
		"line2": "null",
		"city": "Grimbergen",
		"zipcode": "34235"
	},
	{
		"addy_id": 73,
		"lat": "-84.49818",
		"lng": "25.52478",
		"line1": "348 Cursus Rd.",
		"line2": "null",
		"city": "Smithers",
		"zipcode": "54514"
	},
	{
		"addy_id": 74,
		"lat": "-35.96353",
		"lng": "75.91909",
		"line1": "953-9868 Vitae Avenue",
		"line2": "null",
		"city": "Shreveport",
		"zipcode": "51900"
	},
	{
		"addy_id": 75,
		"lat": "-5.75717",
		"lng": "141.44688",
		"line1": "7661 Mi Avenue",
		"line2": "null",
		"city": "Vellore",
		"zipcode": "32710"
	},
	{
		"addy_id": 76,
		"lat": "37.12509",
		"lng": "-66.31874",
		"line1": "591-3114 Volutpat Avenue",
		"line2": "null",
		"city": "Lanark",
		"zipcode": "23878"
	},
	{
		"addy_id": 77,
		"lat": "19.35708",
		"lng": "-55.144",
		"line1": "P.O. Box 938, 8815 Ultrices St.",
		"line2": "null",
		"city": "Marbella",
		"zipcode": "21233"
	},
	{
		"addy_id": 78,
		"lat": "-51.40616",
		"lng": "64.43041",
		"line1": "158-9385 Nulla Street",
		"line2": "null",
		"city": "Sant'Egidio alla Vibrata",
		"zipcode": "95749"
	},
	{
		"addy_id": 79,
		"lat": "-47.58575",
		"lng": "-174.27381",
		"line1": "Ap #776-4837 Odio Street",
		"line2": "null",
		"city": "Salamanca",
		"zipcode": "10587"
	},
	{
		"addy_id": 80,
		"lat": "-1.50198",
		"lng": "32.93549",
		"line1": "P.O. Box 714, 9712 Vestibulum St.",
		"line2": "null",
		"city": "Illapel",
		"zipcode": "38324"
	},
	{
		"addy_id": 81,
		"lat": "-78.24232",
		"lng": "-130.41047",
		"line1": "259-5012 Sociis Rd.",
		"line2": "null",
		"city": "Gravilias",
		"zipcode": "10543"
	},
	{
		"addy_id": 82,
		"lat": "71.68454",
		"lng": "-56.88708",
		"line1": "562-5792 Et St.",
		"line2": "null",
		"city": "Lago Ranco",
		"zipcode": "18102"
	},
	{
		"addy_id": 83,
		"lat": "-87.11543",
		"lng": "163.52772",
		"line1": "Ap #931-4520 Sed Avenue",
		"line2": "null",
		"city": "Swan",
		"zipcode": "31666"
	},
	{
		"addy_id": 84,
		"lat": "-70.18622",
		"lng": "-40.16005",
		"line1": "899-5677 Natoque St.",
		"line2": "null",
		"city": "Wommelgem",
		"zipcode": "95054"
	},
	{
		"addy_id": 85,
		"lat": "-30.22232",
		"lng": "56.80535",
		"line1": "Ap #706-3035 Non, Av.",
		"line2": "null",
		"city": "Dalbeattie",
		"zipcode": "25474"
	},
	{
		"addy_id": 86,
		"lat": "-31.27674",
		"lng": "-89.34657",
		"line1": "P.O. Box 421, 2647 Hendrerit Street",
		"line2": "null",
		"city": "St. Albans",
		"zipcode": "39521"
	},
	{
		"addy_id": 87,
		"lat": "33.28472",
		"lng": "94.73686",
		"line1": "P.O. Box 620, 2235 Ullamcorper Avenue",
		"line2": "null",
		"city": "Monceau-sur-Sambre",
		"zipcode": "37352"
	},
	{
		"addy_id": 88,
		"lat": "34.09805",
		"lng": "-63.19112",
		"line1": "3080 Maecenas Avenue",
		"line2": "null",
		"city": "Kitscoty",
		"zipcode": "56181"
	},
	{
		"addy_id": 89,
		"lat": "-70.57525",
		"lng": "96.14158",
		"line1": "P.O. Box 713, 8260 Mus. Av.",
		"line2": "null",
		"city": "Machalí",
		"zipcode": "72860"
	},
	{
		"addy_id": 90,
		"lat": "53.84526",
		"lng": "-144.18655",
		"line1": "Ap #587-4979 Et St.",
		"line2": "null",
		"city": "West Ham",
		"zipcode": "69609"
	},
	{
		"addy_id": 91,
		"lat": "55.88004",
		"lng": "131.81966",
		"line1": "P.O. Box 969, 3109 Pharetra, Ave",
		"line2": "null",
		"city": "Clare",
		"zipcode": "19289"
	},
	{
		"addy_id": 92,
		"lat": "77.86156",
		"lng": "71.75998",
		"line1": "585-3989 Facilisis Street",
		"line2": "null",
		"city": "Guilmi",
		"zipcode": "53105"
	},
	{
		"addy_id": 93,
		"lat": "-85.0118",
		"lng": "-169.04984",
		"line1": "811-3116 Bibendum St.",
		"line2": "null",
		"city": "Kohima",
		"zipcode": "45378"
	},
	{
		"addy_id": 94,
		"lat": "-80.6079",
		"lng": "58.33597",
		"line1": "P.O. Box 719, 8210 Quis Road",
		"line2": "null",
		"city": "Luton",
		"zipcode": "67008"
	},
	{
		"addy_id": 95,
		"lat": "-86.83355",
		"lng": "-106.58804",
		"line1": "Ap #529-7817 Augue Rd.",
		"line2": "null",
		"city": "Scanzano Jonico",
		"zipcode": "71372"
	},
	{
		"addy_id": 96,
		"lat": "16.02531",
		"lng": "126.66581",
		"line1": "P.O. Box 210, 9156 Ipsum Street",
		"line2": "null",
		"city": "Nil-Saint-Vincent-Saint-Martin",
		"zipcode": "22774"
	},
	{
		"addy_id": 97,
		"lat": "21.08714",
		"lng": "72.12543",
		"line1": "484-6343 Aliquet. Rd.",
		"line2": "null",
		"city": "Conca Casale",
		"zipcode": "69287"
	},
	{
		"addy_id": 98,
		"lat": "-52.86858",
		"lng": "130.47411",
		"line1": "9167 Sagittis. St.",
		"line2": "null",
		"city": "Pamel",
		"zipcode": "99824"
	},
	{
		"addy_id": 99,
		"lat": "-19.99286",
		"lng": "1.47714",
		"line1": "P.O. Box 895, 1205 Et Road",
		"line2": "null",
		"city": "Dannevirke",
		"zipcode": "40409"
	},
	{
		"addy_id": 100,
		"lat": "-26.25786",
		"lng": "-131.58766",
		"line1": "Ap #743-8282 Fermentum St.",
		"line2": "null",
		"city": "Kearny",
		"zipcode": "39650"
	}
]
